1998-067XK              
1 65731U 98067XK  26025.68987707  .00234646  00000+0  13277-2 0  9995
2 65731  51.6251 272.5001 0004172 150.1862 209.9377 15.77852040 20051
RSP-03                  
1 65732U 98067XL  26025.67914595  .00451393  00000+0  16219-2 0  9999
2 65732  51.6206 270.1344 0005320 167.5616 192.5521 15.86998570 20092
YOTSUBA-KULOVER         
1 65941U 98067XN  26025.76538093  .00131310  00000+0  11770-2 0  9997
2 65941  51.6266 277.5272 0004435 163.9939 196.1198 15.67373866 16746
BOTAN                   
1 65942U 98067XP  26025.80197135  .00276857  00000+0  16525-2 0  9990
2 65942  51.6217 274.7500 0005177 172.7994 187.3082 15.76521703 16782
E-KAGAKU-1              
1 65943U 98067XQ  26025.70174350  .00131784  00000+0  11847-2 0  9995
2 65943  51.6282 277.8605 0003111 171.3413 188.7637 15.67306187 16735
HRC MONOBLOCK CAMERA    
1 66052U 98067XR  26026.42005541  .00053442  00000+0  70503-3 0  9991
2 66052  51.6304 278.1540 0000521  43.1203 316.9830 15.57859608 15794
HTV-X1                  
1 66174U 25241A   26026.17505651  .00012778  00000+0  24610-3 0  9994
2 66174  51.6321 282.5143 0011060  31.3623 328.8023 15.48192940   510
SZ-21 MODULE            
1 66515U 25246C   26025.60489789  .00040571  00000+0  39793-3 0  9998
2 66515  41.4752 107.9254 0003260 237.6166 122.4359 15.65292049 11313
SHENZHOU-22             
1 66645U 25272A   26026.26903541  .00028479  00000+0  33018-3 0  9998
2 66645  41.4667 105.9915 0009754   5.2238 354.8701 15.61108540267646
SOYUZ-MS 28             
1 66664U 25275A   26026.17505651  .00012778  00000+0  24608-3 0  9992
2 66664  51.6321 282.5143 0011060  31.3623 328.8022 15.48192939549744
DUPLEX                  
1 66906U 98067XS  26025.96971424  .00033926  00000+0  53502-3 0  9994
2 66906  51.6306 282.6444 0001838  58.3850 301.7319 15.53209937  8487
1998-067XT              
1 66907U 98067XT  26025.75790425  .00115065  00000+0  14582-2 0  9991
2 66907  51.6285 282.7302 0003182 124.4275 235.7018 15.58587556  8469
